[{"OBJECT_NAME":"STARLINK-36940","OBJECT_ID":"2026-040N","EPOCH":"2026-03-09T22:00:01.999584","MEAN_MOTION":16.07932887,"ECCENTRICITY":8.666e-5,"INCLINATION":97.2769,"RA_OF_ASC_NODE":17.1437,"ARG_OF_PERICENTER":84.9989,"MEAN_ANOMALY":342.7519,"EPHEMERIS_TYPE":0,"CLASSIFICATION_TYPE":"U","NORAD_CAT_ID":68027,"ELEMENT_SET_NO":999,"REV_AT_EPOCH":256,"BSTAR":-0.0014176414,"MEAN_MOTION_DOT":-0.01147173,"MEAN_MOTION_DDOT":0.00046436011},{"OBJECT_NAME":"PSLV R\/B","OBJECT_ID":"2014-061B","EPOCH":"2026-03-09T20:00:25.348608","MEAN_MOTION":4.44164583,"ECCENTRICITY":0.57517512,"INCLINATION":17.8378,"RA_OF_ASC_NODE":22.9066,"ARG_OF_PERICENTER":171.9612,"MEAN_ANOMALY":204.2903,"EPHEMERIS_TYPE":0,"CLASSIFICATION_TYPE":"U","NORAD_CAT_ID":40270,"ELEMENT_SET_NO":999,"REV_AT_EPOCH":17255,"BSTAR":0.0012610967,"MEAN_MOTION_DOT":0.00010272,"MEAN_MOTION_DDOT":0}]
